[Satellite]
VERSION=1.1
NAME=STRAND-1
NICKNAME=STRAND-1
TLE1=1 39090U 13009E   17186.22106874  .00000017  00000-0  21324-4 0  9991
TLE2=2 39090  98.5529  31.4888 0008067 244.0487 115.9867 14.34972045228067
